LAPAN-A3                
1 41603U 16040E   26004.88741285  .00005077  00000+0  16771-3 0  9993
2 41603  97.1431   6.6048 0008865 235.0050 125.0360 15.31781302529809
BIROS                   
1 41604U 16040F   26004.62923668  .00395643  70599-4  69037-3 0  9992
2 41604  97.0637  42.1498 0003186 100.3400 259.8239 16.02175041532378
GAOFEN-3                
1 41727U 16049A   26004.90719339  .00000188  00000+0  70286-4 0  9997
2 41727  98.4031  15.1400 0000790  61.8233 298.3036 14.42221097495111
QSS (MOZI)              
1 41731U 16051A   26004.83610478  .00321797  42173-4  87253-3 0  9996
2 41731  97.2951 297.4916 0003493 111.2029 248.9619 15.94217500524626
PRATHAM                 
1 41783U 16059A   26004.55274119  .00001565  00000+0  28625-3 0  9992
2 41783  97.8272   8.6810 0031941  22.2802 337.9782 14.66888719495529
ALSAT 1N                
1 41789U 16059G   26004.79279311  .00002122  00000+0  36869-3 0  9992
2 41789  97.8011  15.4593 0025990 353.8175   6.2707 14.68939985496015
CAS-2T & KS-1Q          
1 41847U 16066G   26004.83299362  .00002159  00000+0  31468-3 0  9998
2 41847  98.3999  82.3480 0342435 264.9745  91.2282 14.44205115481213
YUNHAI-1 01             
1 41857U 16068A   26004.88344021  .00000412  00000+0  16786-3 0  9995
2 41857  98.5878  17.3709 0006045 146.5877 213.5690 14.32666583478449
RESOURCESAT-2A          
1 41877U 16074A   26004.85354331 -.00000069  00000+0 -11021-4 0  9994
2 41877  98.7731  79.5724 0002152 167.0835 193.0398 14.21588785471091
TANSAT                  
1 41898U 16081A   26004.85157466  .00000733  00000+0  16335-3 0  9993
2 41898  98.5290   0.3580 0021692  93.1787 267.1894 14.59803347480795
JILIN-1 03              
1 41914U 17002B   26004.80354388  .00014821  00000+0  41162-3 0  9992
2 41914  97.1980  14.6872 0008040  54.9926 305.2073 15.36949585496723
CARTOSAT-2D             
1 41948U 17008A   26004.88297838  .00005301  00000+0  25393-3 0  9990
2 41948  97.4359  67.0243 0005644  89.9207 270.2674 15.19344380492787
CARTOSAT-2E             
1 42767U 17036C   26004.83365895  .00005365  00000+0  25697-3 0  9992
2 42767  97.4524  67.1157 0003364 143.3625 216.7840 15.19351630473349
D-SAT                   
1 42794U 17036AF  26004.38354557  .00013679  00000+0  68532-3 0  9997
2 42794  97.5388 344.2312 0086837  10.2487 350.0489 15.14175403466041
IRIDIUM 113             
1 42803U 17039A   26004.77272220  .00000018  00000+0 -48232-6 0  9992
2 42803  86.3952  30.4639 0001944  96.2437 263.8980 14.34217407447763
NORSAT 2                
1 42828U 17042D   26004.43898941  .00016205  00000+0  80382-3 0  9993
2 42828  97.3899 181.0353 0009350 267.4132  92.6032 15.17759616462860
TECHNOSAT               
1 42829U 17042E   26004.68919919  .00004547  00000+0  33564-3 0  9996
2 42829  97.4043 168.9130 0016956 294.7372  65.2089 15.03625015462126
FLYING LAPTOP           
1 42831U 17042G   26004.88335137  .00004826  00000+0  39105-3 0  9992
2 42831  97.4240 167.4518 0013632 327.1396  32.8979 15.00077734461962
WNISAT 1R               
1 42835U 17042L   26004.52458198  .00004861  00000+0  38901-3 0  9992
2 42835  97.4216 167.1280 0013269 353.8318   6.2741 15.00553445461957
LEMUR-2-GREENBERG       
1 42837U 17042N   26004.75131592  .00020481  00000+0  81357-3 0  9994
2 42837  97.3709 186.8798 0008622 221.4620 138.5964 15.25318105463429
LEMUR-2-FURIAUS         
1 42840U 17042R   26004.44173162  .00020725  00000+0  88246-3 0  9998
2 42840  97.3700 184.9967 0007774 289.0013  71.0381 15.22981310463227
CORVUS BC2              
1 42846U 17042X   26004.71192629  .00005091  00000+0  36277-3 0  9999
2 42846  97.3863 172.7394 0012346 317.2436  42.7830 15.04954717462466
CORVUS BC1              
1 42847U 17042Y   26004.72885860  .00005582  00000+0  39483-3 0  9994
2 42847  97.3894 173.4515 0010817 290.9303  69.0766 15.05202642462492
VRSS-2                  
1 42954U 17060A   26004.89118127  .00002066  00000+0  27354-3 0  9994
2 42954  97.6755  49.8047 0015672 274.9176  85.0248 14.80857558444284
MOHAMMED VI-A           
1 43005U 17070A   26004.88507685  .00001317  00000+0  19379-3 0  9999
2 43005  97.9559  79.5601 0001430  78.8087 281.3283 14.77078017439872
FENGYUN 3D              
1 43010U 17072A   26004.85486469 -.00000106  00000+0 -28434-4 0  9990
2 43010  98.9917 336.5141 0001990 126.6442 233.4917 14.19691729421814
CZ-4C R/B               
1 43012U 17072C   26004.85447672  .00000816  00000+0  16954-3 0  9994
2 43012  98.5736 107.6318 0121917 295.2306  63.6295 14.58587743432826
NOAA 20 (JPSS-1)        
1 43013U 17073A   26004.82771030  .00000130  00000+0  82722-4 0  9997
2 43013  98.7626 305.8751 0001843  53.9901 306.1446 14.19533291421293
MAKERSAT 0              
1 43016U 17073D   26004.64155807  .00021163  00000+0  68758-3 0  9999
2 43016  97.4870 246.5253 0125815 130.8342 230.3886 15.24508853441483
RADFXSAT (FOX-1B)       
1 43017U 17073E   26004.85213851  .00012838  00000+0  59627-3 0  9991
2 43017  97.4920 235.5287 0159601 170.6767 189.7488 15.09430438440725
JILIN-1 04              
1 43022U 17074A   26004.81599848  .00016032  00000+0  43574-3 0  9991
2 43022  97.4805 110.7724 0005489  68.7299 291.4531 15.37628022449126
JILIN-1 05              
1 43023U 17074B   26004.83674683  .00008460  00000+0  28093-3 0  9990
2 43023  97.4827 109.1907 0006844  89.1866 271.0159 15.31448731448983
JILIN-1 06              
1 43024U 17074C   26004.80489547  .00009297  00000+0  30902-3 0  9992
2 43024  97.4769 106.3209 0008649  98.8560 261.3660 15.31376172448816
IRIDIUM 116             
1 43072U 17083C   26004.67758256  .00000251  00000+0  82579-4 0  9995
2 43072  86.3948  30.3387 0002399  84.4034 275.7435 14.34217287420734
IRIDIUM 130             
1 43073U 17083D   26004.57610192  .00000066  00000+0  16435-4 0  9993
2 43073  86.3956  30.6404 0002523  90.2144 269.9341 14.34218051420666
LKW-2                   
1 43080U 17084A   26004.85994206  .00007465  00000+0  31184-3 0  9991
2 43080  97.1442  52.3423 0003721  94.3802 265.7861 15.23895172446790
SUPERVIEW-1 03          
1 43099U 18002A   26004.82985927  .00019148  00000+0  56728-3 0  9991
2 43099  97.3278  90.5230 0054502  48.5978 311.9930 15.33399425443280
CARTOSAT-2F             
1 43111U 18004A   26004.86646914  .00003305  00000+0  16009-3 0  9998
2 43111  97.4284  67.1264 0002104  81.1042 279.0430 15.19235298442533
LKW-3                   
1 43146U 18006A   26004.85006815  .00017525  00000+0  58179-3 0  9990
2 43146  97.6388 159.7127 0003337 146.9469 213.1981 15.31288056443687
ASNARO-2                
1 43152U 18007A   26004.78739939 -.00002600  00000+0 -10958-3 0  9993
2 43152  97.4016  14.2208 0001423  77.4312 282.7083 15.22444925442553
JILIN-1 07              
1 43159U 18008E   26004.80560532  .00010483  00000+0  34502-3 0  9992
2 43159  97.1909  29.3046 0006923 289.3810  70.6683 15.31658063439963
JILIN-1 08              
1 43160U 18008F   26004.78375411  .00007521  00000+0  25393-3 0  9998
2 43160  97.1932  28.7381 0004837 311.1668  48.9155 15.30944158439923
LEMUR-2-KADI            
1 43184U 18014E   26004.52241791  .00065413  00000+0  10205-2 0  9995
2 43184  97.4869 285.9574 0007202 114.9117 245.2886 15.53594690435396
S-NET D                 
1 43186U 18014G   26004.81246804  .00008369  00000+0  45515-3 0  9999
2 43186  97.5485 270.7195 0007353 215.5983 144.4759 15.14700181434018
S-NET B                 
1 43187U 18014H   26004.68877259  .00008464  00000+0  46056-3 0  9996
2 43187  97.5495 270.5780 0008131 211.3237 148.7511 15.14672432433995
S-NET A                 
1 43188U 18014J   26004.67995715  .00008578  00000+0  46631-3 0  9999
2 43188  97.5504 270.7493 0008021 211.7885 148.2864 15.14704719433991
S-NET C                 
1 43189U 18014K   26004.69181714  .00008168  00000+0  44456-3 0  9996
2 43189  97.5517 270.8103 0009554 205.2226 154.8540 15.14666206432546
PAZ                     
1 43215U 18020A   26004.62196395  .00003444  00000+0  16704-3 0  9994
2 43215  97.4439  14.3526 0001675  89.8541 270.2886 15.19165787436172
GOES 17                 
1 43226U 18022A   26004.79840760 -.00000183  00000+0  00000+0 0  9994
2 43226   0.5174  88.7590 0003408 196.2953  17.2581  1.00270239 28786
LKW-4                   
1 43236U 18025A   26004.46555523  .00036461  00000+0  65950-3 0  9998
2 43236  97.6187 164.2945 0002562 168.4796 191.6514 15.49596617434578
ZHUHAI-1 OVS-02         
1 43440U 18040B   26004.86184174  .00008880  00000+0  38329-3 0  9990
2 43440  97.0533  31.8993 0005579 108.7008 251.4836 15.22716032427840
ZHUHAI-1 OHS-02         
1 43441U 18040C   26004.86111743  .00009303  00000+0  39346-3 0  9994
2 43441  97.0560  38.6612 0011750  90.9061 269.3523 15.23347639 89392
GAOFEN-6                
1 43484U 18048A   26004.82590479  .00001652  00000+0  24327-3 0  9994
2 43484  97.8004  73.3149 0011764 353.0098   7.0946 14.76618862409285
LUOJIA-1 01             
1 43485U 18048B   26004.85204715  .00003483  00000+0  39976-3 0  9993
2 43485  97.8271  85.6507 0007927 303.8412  56.2048 14.86487815409940
PAKTES 1A               
1 43529U 18056A   26004.88904596  .00006204  00000+0  52696-3 0  9996
2 43529  98.1023 154.7711 0019850 294.6919  65.2236 14.98119750407467
PRSS-1                  
1 43530U 18056B   26004.84682182  .00001534  00000+0  20154-3 0  9993
2 43530  97.8045  77.1160 0001420  97.8182 262.3192 14.81647643404247
HAIYANG-1C              
1 43609U 18068A   26004.84896306  .00000231  00000+0  98099-4 0  9995
2 43609  98.5406  79.3883 0010188 214.1133 145.9398 14.34114145383671
SSTL S1-4               
1 43618U 18071A   26004.90793483  .00001862  00000+0  16986-3 0  9993
2 43618  97.5255 243.0454 0001605  42.1500 317.9845 14.96240933398528
HAIYANG-2B              
1 43655U 18081A   26004.87830986 -.00000244  00000+0 -19510-3 0  9992
2 43655  99.3317  16.0759 0001402  35.7825 324.3420 13.79309531362417
